ONEWEB-0424             
1 50497U 21132AE  23279.47588905  .00000006  00000+0 -16723-4 0  9992
2 50497  87.9211 171.3077 0001439  58.6053 301.5219 13.18686634 93149
ONEWEB-0426             
1 50498U 21132AF  23279.21031217  .00000108  00000+0  24111-3 0  9995
2 50498  87.9283 171.3754 0001750  92.0383 268.0949 13.18686624 93062
ONEWEB-0427             
1 50499U 21132AG  23279.39790206 -.00000030  00000+0 -10954-3 0  9991
2 50499  87.9213 171.3270 0001479  79.6421 280.4877 13.18687235 93125
ONEWEB-0429             
1 50500U 21132AH  23278.77825423 -.00000006  00000+0 -47447-4 0  9996
2 50500  87.9275 171.4420 0001845  70.8856 289.2476 13.18689734 91717
ONEWEB-0430             
1 50501U 21132AJ  23279.14710012  .00000457  00000+0  11276-2 0  9993
2 50501  87.9287 171.3655 0001688  67.8803 292.2508 13.18686650 93090
ONEWEB-0432             
1 50502U 21132AK  23278.79931785  .00000006  00000+0 -16576-4 0  9997
2 50502  87.9211 171.4423 0001782  71.9904 288.1422 13.18685494 91716
ONEWEB-0440             
1 50503U 21132AL  23278.78667069  .00000201  00000+0  47625-3 0  9992
2 50503  87.9218 171.4595 0002411  85.0647 275.0760 13.18687394 91704
ONEWEB-0450             
1 50504U 21132AM  23278.78035144  .00000052  00000+0  98036-4 0  9993
2 50504  87.9262 171.4690 0002089  66.2429 293.8922 13.18685331 91730
